{
  "type": "FeatureCollection",
  "features": [
    {
      "type": "Feature",
      "id": 278309,
      "geometry": {
        "type": "Point",
        "coordinates": [
          148.1022908,
          -36.1809499
        ],
        "collections": []
      },
      "properties": {
        "webLinks": [],
        "headline": "",
        "periods": [],
        "speedLimit": -1,
        "weblinkUrl": null,
        "expectedDelay": -1,
        "ended": true,
        "isNewIncident": false,
        "publicTransport": "",
        "impactingNetwork": true,
        "subCategoryB": null,
        "arrangementAttachments": [],
        "isInitialReport": false,
        "created": 1781668798000,
        "isMajor": false,
        "name": null,
        "subCategoryA": "Road closed",
        "adviceA": "Check signage",
        "adviceB": "Snow chains are required",
        "adviceC": " ",
        "incidentKind": "Unplanned",
        "mainCategory": "ALPINE CONDITIONS",
        "lastUpdated": 1790923553866,
        "otherAdvice": "<p><strong>Seasonal road closure.</strong></p><p><strong>Chains must be carried in Kosciuszko National Park in winter (4WD/AWDs exempt).</strong></p><p>All motorists should be prepared and equipped for sudden changes in road and weather conditions in Alpine areas</p>",
        "arrangementElements": [],
        "diversions": "",
        "additionalInfo": [],
        "weblinkName": null,
        "attendingGroups": null,
        "encodedPolylines": [],
        "displayName": "ALPINE CONDITIONS Road closed",
        "roads": [
          {
            "conditionTendency": "",
            "crossStreet": "Khancoban",
            "delay": "",
            "impactedLanes": [
              {
                "affectedDirection": "Both directions",
                "closedLanes": "",
                "description": "",
                "extent": "Closed",
                "numberOfLanes": "",
                "roadType": "Road"
              }
            ],
            "locationQualifier": "between",
            "mainStreet": "Tooma Road & Snow Ridge Road",
            "quadrant": "",
            "queueLength": 0,
            "region": "Snowy Mountains",
            "secondLocation": "Cabramurra",
            "suburb": "Khancoban to Cabramurra",
            "trafficVolume": ""
          }
        ],
        "isLocalRoad": "State road",
        "CategoryIcon": "SnowIce"
      }
    },
    {
      "type": "Feature",
      "id": 278305,
      "geometry": {
        "type": "Point",
        "coordinates": [
          148.4257507,
          -35.9316588
        ],
        "collections": []
      },
      "properties": {
        "webLinks": [],
        "headline": "",
        "periods": [],
        "speedLimit": -1,
        "weblinkUrl": null,
        "expectedDelay": -1,
        "ended": true,
        "isNewIncident": false,
        "publicTransport": "",
        "impactingNetwork": true,
        "subCategoryB": null,
        "arrangementAttachments": [],
        "isInitialReport": false,
        "created": 1781668400000,
        "isMajor": false,
        "name": null,
        "subCategoryA": "Road closed",
        "adviceA": "Check signage",
        "adviceB": "Snow chains are required",
        "adviceC": " ",
        "incidentKind": "Unplanned",
        "mainCategory": "ALPINE CONDITIONS",
        "lastUpdated": 1790923559663,
        "otherAdvice": "<p><strong>Seasonal road closure.</strong></p><p><strong>Chains must be carried in Kosciuszko National Park in winter (4WD/AWDs exempt).</strong></p><p>All motorists should be prepared and equipped for sudden changes in road and weather conditions in Alpine areas</p>",
        "arrangementElements": [],
        "diversions": "",
        "additionalInfo": [],
        "weblinkName": null,
        "attendingGroups": null,
        "encodedPolylines": [],
        "displayName": "ALPINE CONDITIONS Road closed",
        "roads": [
          {
            "conditionTendency": "",
            "crossStreet": "Selwyn Ski Resort",
            "delay": "",
            "impactedLanes": [
              {
                "affectedDirection": "Both directions",
                "closedLanes": "",
                "description": "",
                "extent": "Closed",
                "numberOfLanes": "",
                "roadType": "Road"
              }
            ],
            "locationQualifier": "between",
            "mainStreet": "Kings Cross Road",
            "quadrant": "",
            "queueLength": 0,
            "region": "Snowy Mountains",
            "secondLocation": "Cabramurra",
            "suburb": "Selwyn to Cabramurra",
            "trafficVolume": ""
          }
        ],
        "isLocalRoad": "State road",
        "CategoryIcon": "SnowIce"
      }
    }
  ]
}