{
  "type": "FeatureCollection",
  "features": [
    {
      "type": "Feature",
      "id": 289412,
      "geometry": {
        "type": "Point",
        "coordinates": [
          151.084007,
          -33.926256
        ],
        "collections": []
      },
      "properties": {
        "webLinks": [],
        "headline": "",
        "periods": [],
        "speedLimit": -1,
        "weblinkUrl": null,
        "expectedDelay": -1,
        "ended": false,
        "isNewIncident": false,
        "publicTransport": "",
        "impactingNetwork": true,
        "subCategoryB": null,
        "arrangementAttachments": [],
        "isInitialReport": false,
        "created": 1790619147000,
        "isMajor": false,
        "name": null,
        "subCategoryA": "null",
        "adviceA": "Avoid the area",
        "adviceB": "Exercise caution",
        "adviceC": " ",
        "incidentKind": "Unplanned",
        "mainCategory": "BUILDING FIRE",
        "lastUpdated": 1790619435676,
        "otherAdvice": "",
        "arrangementElements": [],
        "diversions": "",
        "additionalInfo": [],
        "weblinkName": null,
        "attendingGroups": [
          "Rural Fire Service"
        ],
        "encodedPolylines": [],
        "displayName": "BUILDING FIRE",
        "roads": [
          {
            "conditionTendency": "",
            "crossStreet": "Dennis Street",
            "delay": "",
            "impactedLanes": [
              {
                "affectedDirection": "Both directions",
                "closedLanes": "",
                "description": "",
                "extent": "Closed",
                "numberOfLanes": "",
                "roadType": "Road"
              }
            ],
            "locationQualifier": "at",
            "mainStreet": "Canterbury Road",
            "quadrant": "",
            "queueLength": 0,
            "region": "Sydney",
            "secondLocation": "",
            "suburb": "Lakemba",
            "trafficVolume": ""
          }
        ],
        "isLocalRoad": "State road",
        "CategoryIcon": "Fire"
      }
    }
  ]
}