{
  "type": "FeatureCollection",
  "features": [
    {
      "type": "Feature",
      "id": 229168,
      "geometry": {
        "type": "Point",
        "coordinates": [
          141.311249,
          -30.801207
        ],
        "collections": []
      },
      "properties": {
        "webLinks": [],
        "headline": "",
        "periods": [],
        "speedLimit": -1,
        "weblinkUrl": null,
        "expectedDelay": -1,
        "ended": false,
        "isNewIncident": true,
        "publicTransport": "",
        "impactingNetwork": true,
        "subCategoryB": null,
        "arrangementAttachments": [],
        "isInitialReport": false,
        "created": 1743131619000,
        "isMajor": false,
        "name": null,
        "subCategoryA": "null",
        "adviceA": "Avoid the area",
        "adviceB": "Never drive through floodwater",
        "adviceC": " ",
        "incidentKind": "Unplanned",
        "mainCategory": "FLOODING",
        "lastUpdated": 1743131620580,
        "otherAdvice": "Road conditions for Unincorporated Area of the Western Region are available on 08 8082 6660.",
        "arrangementElements": [],
        "diversions": "",
        "additionalInfo": [],
        "weblinkName": null,
        "attendingGroups": null,
        "encodedPolylines": [
          {
            "levels": "",
            "direction": null,
            "coords": "~`y{Dycd}YyB?eCAeIDmLD_DBi@Bo@Dg@DOBwAZOBqA\\{@NuAVMB{AReANc@FqC\\gCZuAPeEh@wBV_Gx@q@Fg@JaB^e@L??a@PoBnAy@f@_@Xu@t@y@z@c@p@}@vAwA|Bq@bAeA`Be@v@_A~AqArBqAtBKTqArBiAbB_A~AWd@S^y@`BQZgApBUXMJOH[P_AZy@?_EH{BPmAH_AHiBRe@DwFv@oARkBX_@DaAJ}@Do@DgAAm@?gBDiAHiADk@?_@@o@EWEKCs@c@q@k@c@g@kAaBS[o@cAaCwDa@y@g@_BEMk@sBWyA_@sAc@oAm@yA}AuCk@cAA?i@g@gBuAIIqA}@mAy@}@]m@My@QeDa@qBQcDUSCgBMm@G_@C}AGsAKiAEsAKaHYwGUqCAY?kAFk@@yADgBFo@@sBCs@Cs@Ai@Cc@Cq@GwAMa@Cw@Is@K{AWcAQ]EYCQA]BS@k@H]B_@?YA{@IQEIEk@UYK_@I_@Gg@E]E[?[@qAJs@Dc@Hu@Ne@L]FMBeDfAo@X_A^c@RYHMBa@LwB`@}AXw@LgCXyAYiASuBQMAcEc@[Eq@Me@Ie@G_Ea@cD[_SiCwGy@OCiDc@}Di@{BUc@G_@GeB]e@K[I[Ma@W]UaBoAiAy@UQMMKKk@_AIUEIIMGIMEMEKGMGMKY[YYqBuBu@y@kCoCwB{BmCqCiCsCOQs@u@w@w@y@s@g@g@gAgAq@s@YYq@q@eCgCwAyA}BeC}AwAkAeAEG[YSQs@s@s@w@u@}@]g@e@q@IMm@cAi@y@e@u@g@}@o@sAy@wAsAmBmAiBe@s@c@k@QUW_@Sc@MYO_@Se@Wk@W_@g@q@a@_@][MGSEQCc@Ek@Ca@AK?M?S?A?WB_@JWJa@Lg@NW@a@@aA@wAB}ADa@@u@@kBBu@@k@@sA@wCHsADyAHm@B_AB}@BuANY@WDMBODOH]P_@P]L_A\\cATyAV[Fi@Ho@P{@`@k@XmBn@YHy@ZYLw@ZSJC@WJKDKBG@G@SCWEi@Se@Is@Ig@Gk@IICUIgAc@c@Oc@M]I_@GOKUQSUIQKUEOCWKg@a@yCYcCQwAc@cEU{BGq@]qDS{B]iDO}AS{By@gIGc@WwB]sBo@iCWcAQg@MSQYqFoGg@k@eEyEyBuCyDgDo@k@s@m@aEuEY]q@{@uBcCyLaNwH_KeO_SuDaFaUmXeCwCsKqMiBwBkG_FeBcB{EqEaJuHgCgCwAyBy@qAoHkNmBoDcDiGuB_EwDyE}EcFqHwIKMs@mAaAeB{CiG{BiEe@}@c@w@kAwB}@sAcAkAoAgA}BwAeEoCgEaDa@[sByAiFuDa@[uCuBwAyB{@kBYqAKa@e@mBe@kAq@sB{@_EmAsJ_BaLo@{Cm@sDUgBIqBOeOSkFAg@UaKaCkT[{B_CuPi@wDqC_MiCaLaCaNoCuOoAaHiCmPmBwNuAoGcA_DkAcCuAmCsBcEGIYa@c@i@eA{@qBoAsAeAeAcAgAkAuAgBgBgC_JwM{FmImGmJgDwFkCuEa@u@W]WW]SKGICKAoCc@}@UgAWw@Y]Oa@Qg@Ym@][UWWu@s@[_@W_@}AsBsAaByAmB_AkAy@u@g@_@g@YgAg@}As@eB_AcDiBoFsCqAu@kAo@}BeAYO{HgEuEaCqRiLwCkBwByA_GiEaBeAmAu@[QKE]MUEUEY?YB_@De@Ha@NSF}Bv@wAl@}Al@}EbBQH{CfA{Bl@{@PSDu@Fg@B{ABoAHqAFo@Bm@?_@EuAUiE}@yA[]QSMQOACOUSa@SMUK{A]u@@e@BoBLkJp@iH`AmK|@{DZmLlAyCh@yInAmGfBk@ReCd@aBPEAG?EAGAEECGGEKGKCGAE?S@G@EBKBYJ??Kj@CHCFCB??WRc@NEBIDI@I?c@BK?G@I?Y?c@Ga@OaAa@MEsAY??A?yBq@OG[S[]M[Ua@GOsA{CGQa@{AM]cF_JsCcG_ByC_BaCeBwAeAo@_Ai@kCkAkBc@mAc@s@c@c@_@g@{@oAuBiCaE_F}GuBsBuDiFmCoEaA}A]e@_CoC]e@cA_Co@wGa@eDeB{EiBuDm@qAeDeFmFwDoBmBmCmCwDsDgAqAoA{Bk@eAqAwBsAyBc@m@{@y@eB_AkAg@}@e@QOGIGM_BeDYq@aAwC{@qCqA_DcCoFiB{BkCwB[OWIkA]{@_@OGqA[gC_AmBg@]Mw@a@MGIIIMe@w@Wi@[k@qBoDcAwAy@wAO]O[ACaAqBg@u@}AkCs@eAUc@QY[c@EGMQUg@e@{@cAcBw@aBeAgB_G}JS_@EI]o@Yg@Q]IQEGQWg@u@Q]QWOWAA"
          }
        ],
        "displayName": "FLOODING",
        "roads": [
          {
            "conditionTendency": "",
            "crossStreet": "",
            "delay": "",
            "impactedLanes": [
              {
                "affectedDirection": "Both directions",
                "closedLanes": "",
                "description": "",
                "extent": "Closed",
                "numberOfLanes": "",
                "roadType": "Road"
              }
            ],
            "locationQualifier": "at",
            "mainStreet": "Corona Road/Joulnie Road",
            "quadrant": "",
            "queueLength": 0,
            "region": "Far West NSW",
            "secondLocation": "",
            "suburb": "Teilta to Westwood Downs",
            "trafficVolume": ""
          }
        ],
        "isLocalRoad": "State road",
        "CategoryIcon": "Flood"
      }
    }
  ]
}